<gpx xmlns:ns3="http://www.garmin.com/xmlschemas/TrackPointExtension/v1" xmlns="http://www.topografix.com/GPX/1/1" xmlns:xsi="http://www.w3.org/2001/XMLSchema-instance" xmlns:ns2="http://www.garmin.com/xmlschemas/GpxExtensions/v3" creator="Garmin Connect" version="1.1" xsi:schemaLocation="http://www.topografix.com/GPX/1/1 http://www.topografix.com/GPX/11.xsd">
  <extensions>
<distance>1327.63</distance>
<average_hr>98.0</average_hr>
<average_speed>1.8040000200271606</average_speed>
<start_time>2026-09-09T08:37:30+00:00</start_time>
<end_time>2026-09-09T08:49:46.039000+00:00</end_time>
<moving_time>662.0</moving_time>
<elapsed_time>989.065</elapsed_time>
</extensions>
<metadata>
    <link href="connect.garmin.com">
      <text>Garmin Connect</text>
    </link>
    <time>2026-09-09T08:37:30.000Z</time>
  </metadata>
  <trk>
    <name>虹口区 跑步</name>
    <type>running</type>
    <trkseg>
      <trkpt lat="31.2684280984103679656982421875" lon="121.47906926460564136505126953125">
        <ele>11</ele>
        <time>2026-09-09T08:37:30.000Z</time>
        <extensions>
          <ns3:TrackPointExtension>
            <ns3:hr>80</ns3:hr>
            <ns3:cad>0</ns3:cad>
          </ns3:TrackPointExtension>
        </extensions>
      </trkpt>
      <trkpt lat="31.26847428269684314727783203125" lon="121.4791022054851055145263671875">
        <ele>10.3999996185302734375</ele>
        <time>2026-09-09T08:37:36.000Z</time>
        <extensions>
          <ns3:TrackPointExtension>
            <ns3:hr>77</ns3:hr>
            <ns3:cad>0</ns3:cad>
          </ns3:TrackPointExtension>
        </extensions>
      </trkpt>
      <trkpt lat="31.26848794519901275634765625" lon="121.47911452688276767730712890625">
        <ele>10.19999980926513671875</ele>
        <time>2026-09-09T08:37:38.000Z</time>
        <extensions>
          <ns3:TrackPointExtension>
            <ns3:hr>80</ns3:hr>
            <ns3:cad>0</ns3:cad>
          </ns3:TrackPointExtension>
        </extensions>
      </trkpt>
      <trkpt lat="31.2685474567115306854248046875" lon="121.479122154414653778076171875">
        <ele>9.6000003814697265625</ele>
        <time>2026-09-09T08:37:45.000Z</time>
        <extensions>
          <ns3:TrackPointExtension>
            <ns3:hr>81</ns3:hr>
            <ns3:cad>53</ns3:cad>
          </ns3:TrackPointExtension>
        </extensions>
      </trkpt>
      <trkpt lat="31.2685615383088588714599609375" lon="121.47911989130079746246337890625">
        <ele>9.3999996185302734375</ele>
        <time>2026-09-09T08:37:46.000Z</time>
        <extensions>
          <ns3:TrackPointExtension>
            <ns3:hr>84</ns3:hr>
            <ns3:cad>53</ns3:cad>
          </ns3:TrackPointExtension>
        </extensions>
      </trkpt>
      <trkpt lat="31.2685749493539333343505859375" lon="121.47911821492016315460205078125">
        <ele>9.19999980926513671875</ele>
        <time>2026-09-09T08:37:47.000Z</time>
        <extensions>
          <ns3:TrackPointExtension>
            <ns3:hr>81</ns3:hr>
            <ns3:cad>0</ns3:cad>
          </ns3:TrackPointExtension>
        </extensions>
      </trkpt>
      <trkpt lat="31.26859598793089389801025390625" lon="121.47911737672984600067138671875">
        <ele>9</ele>
        <time>2026-09-09T08:37:49.000Z</time>
        <extensions>
          <ns3:TrackPointExtension>
            <ns3:hr>84</ns3:hr>
            <ns3:cad>0</ns3:cad>
          </ns3:TrackPointExtension>
        </extensions>
      </trkpt>
      <trkpt lat="31.2686074711382389068603515625" lon="121.4791182987391948699951171875">
        <ele>8.80000019073486328125</ele>
        <time>2026-09-09T08:37:50.000Z</time>
        <extensions>
          <ns3:TrackPointExtension>
            <ns3:hr>81</ns3:hr>
            <ns3:cad>0</ns3:cad>
          </ns3:TrackPointExtension>
        </extensions>
      </trkpt>
      <trkpt lat="31.2686897814273834228515625" lon="121.47912726737558841705322265625">
        <ele>8</ele>
        <time>2026-09-09T08:37:56.000Z</time>
        <extensions>
          <ns3:TrackPointExtension>
            <ns3:hr>79</ns3:hr>
            <ns3:cad>0</ns3:cad>
          </ns3:TrackPointExtension>
        </extensions>
      </trkpt>
      <trkpt lat="31.268731690943241119384765625" lon="121.47913992404937744140625">
        <ele>7.599999904632568359375</ele>
        <time>2026-09-09T08:38:02.000Z</time>
        <extensions>
          <ns3:TrackPointExtension>
            <ns3:hr>76</ns3:hr>
            <ns3:cad>0</ns3:cad>
          </ns3:TrackPointExtension>
        </extensions>
      </trkpt>
      <trkpt lat="31.268753819167613983154296875" lon="121.47914906032383441925048828125">
        <ele>7.400000095367431640625</ele>
        <time>2026-09-09T08:38:04.000Z</time>
        <extensions>
          <ns3:TrackPointExtension>
            <ns3:hr>75</ns3:hr>
            <ns3:cad>52</ns3:cad>
          </ns3:TrackPointExtension>
        </extensions>
      </trkpt>
      <trkpt lat="31.26880167983472347259521484375" lon="121.47918426431715488433837890625">
        <ele>7.400000095367431640625</ele>
        <time>2026-09-09T08:38:12.000Z</time>
        <extensions>
          <ns3:TrackPointExtension>
            <ns3:hr>74</ns3:hr>
            <ns3:cad>0</ns3:cad>
          </ns3:TrackPointExtension>
        </extensions>
      </trkpt>
      <trkpt lat="31.26884895376861095428466796875" lon="121.47924385964870452880859375">
        <ele>7.80000019073486328125</ele>
        <time>2026-09-09T08:38:19.000Z</time>
        <extensions>
          <ns3:TrackPointExtension>
            <ns3:hr>73</ns3:hr>
            <ns3:cad>0</ns3:cad>
          </ns3:TrackPointExtension>
        </extensions>
      </trkpt>
      <trkpt lat="31.268889941275119781494140625" lon="121.47922198288142681121826171875">
        <ele>7.80000019073486328125</ele>
        <time>2026-09-09T08:38:23.000Z</time>
        <extensions>
          <ns3:TrackPointExtension>
            <ns3:hr>70</ns3:hr>
            <ns3:cad>55</ns3:cad>
          </ns3:TrackPointExtension>
        </extensions>
      </trkpt>
      <trkpt lat="31.2689256481826305389404296875" lon="121.479234136641025543212890625">
        <ele>8</ele>
        <time>2026-09-09T08:38:26.000Z</time>
        <extensions>
          <ns3:TrackPointExtension>
            <ns3:hr>69</ns3:hr>
            <ns3:cad>57</ns3:cad>
          </ns3:TrackPointExtension>
        </extensions>
      </trkpt>
      <trkpt lat="31.26896378584206104278564453125" lon="121.47925199009478092193603515625">
        <ele>8</ele>
        <time>2026-09-09T08:38:29.000Z</time>
        <extensions>
          <ns3:TrackPointExtension>
            <ns3:hr>69</ns3:hr>
            <ns3:cad>78</ns3:cad>
          </ns3:TrackPointExtension>
        </extensions>
      </trkpt>
      <trkpt lat="31.2690201960504055023193359375" lon="121.47925986908376216888427734375">
        <ele>8.19999980926513671875</ele>
        <time>2026-09-09T08:38:34.000Z</time>
        <extensions>
          <ns3:TrackPointExtension>
            <ns3:hr>74</ns3:hr>
            <ns3:cad>79</ns3:cad>
          </ns3:TrackPointExtension>
        </extensions>
      </trkpt>
      <trkpt lat="31.269032768905162811279296875" lon="121.47927529178559780120849609375">
        <ele>8.19999980926513671875</ele>
        <time>2026-09-09T08:38:36.000Z</time>
        <extensions>
          <ns3:TrackPointExtension>
            <ns3:hr>78</ns3:hr>
            <ns3:cad>81</ns3:cad>
          </ns3:TrackPointExtension>
        </extensions>
      </trkpt>
      <trkpt lat="31.26903687603771686553955078125" lon="121.47928266786038875579833984375">
        <ele>8.3999996185302734375</ele>
        <time>2026-09-09T08:38:37.000Z</time>
        <extensions>
          <ns3:TrackPointExtension>
            <ns3:hr>81</ns3:hr>
            <ns3:cad>81</ns3:cad>
          </ns3:TrackPointExtension>
        </extensions>
      </trkpt>
      <trkpt lat="31.26907643862068653106689453125" lon="121.479303203523159027099609375">
        <ele>8.3999996185302734375</ele>
        <time>2026-09-09T08:38:39.000Z</time>
        <extensions>
          <ns3:TrackPointExtension>
            <ns3:hr>85</ns3:hr>
            <ns3:cad>80</ns3:cad>
          </ns3:TrackPointExtension>
        </extensions>
      </trkpt>
      <trkpt lat="31.26911382190883159637451171875" lon="121.47931359708309173583984375">
        <ele>8.6000003814697265625</ele>
        <time>2026-09-09T08:38:40.000Z</time>
        <extensions>
          <ns3:TrackPointExtension>
            <ns3:hr>87</ns3:hr>
            <ns3:cad>79</ns3:cad>
          </ns3:TrackPointExtension>
        </extensions>
      </trkpt>
      <trkpt lat="31.2691744230687618255615234375" lon="121.47931871004402637481689453125">
        <ele>8.6000003814697265625</ele>
        <time>2026-09-09T08:38:42.000Z</time>
        <extensions>
          <ns3:TrackPointExtension>
            <ns3:hr>90</ns3:hr>
            <ns3:cad>80</ns3:cad>
          </ns3:TrackPointExtension>
        </extensions>
      </trkpt>
      <trkpt lat="31.26923494040966033935546875" lon="121.47933497093617916107177734375">
        <ele>8.6000003814697265625</ele>
        <time>2026-09-09T08:38:45.000Z</time>
        <extensions>
          <ns3:TrackPointExtension>
            <ns3:hr>94</ns3:hr>
            <ns3:cad>83</ns3:cad>
          </ns3:TrackPointExtension>
        </extensions>
      </trkpt>
      <trkpt lat="31.26925170421600341796875" lon="121.4793384075164794921875">
        <ele>8.80000019073486328125</ele>
        <time>2026-09-09T08:38:46.000Z</time>
        <extensions>
          <ns3:TrackPointExtension>
            <ns3:hr>96</ns3:hr>
            <ns3:cad>83</ns3:cad>
          </ns3:TrackPointExtension>
        </extensions>
      </trkpt>
      <trkpt lat="31.2692917697131633758544921875" lon="121.47933907806873321533203125">
        <ele>8.80000019073486328125</ele>
        <time>2026-09-09T08:38:48.000Z</time>
        <extensions>
          <ns3:TrackPointExtension>
            <ns3:hr>99</ns3:hr>
            <ns3:cad>83</ns3:cad>
          </ns3:TrackPointExtension>
        </extensions>
      </trkpt>
      <trkpt lat="31.2693710625171661376953125" lon="121.47932843305170536041259765625">
        <ele>9</ele>
        <time>2026-09-09T08:38:51.000Z</time>
        <extensions>
          <ns3:TrackPointExtension>
            <ns3:hr>102</ns3:hr>
            <ns3:cad>81</ns3:cad>
          </ns3:TrackPointExtension>
        </extensions>
      </trkpt>
      <trkpt lat="31.269421689212322235107421875" lon="121.479340754449367523193359375">
        <ele>9</ele>
        <time>2026-09-09T08:38:53.000Z</time>
        <extensions>
          <ns3:TrackPointExtension>
            <ns3:hr>103</ns3:hr>
            <ns3:cad>81</ns3:cad>
          </ns3:TrackPointExtension>
        </extensions>
      </trkpt>
      <trkpt lat="31.269481368362903594970703125" lon="121.4793694205582141876220703125">
        <ele>9</ele>
        <time>2026-09-09T08:38:58.000Z</time>
        <extensions>
          <ns3:TrackPointExtension>
            <ns3:hr>105</ns3:hr>
            <ns3:cad>82</ns3:cad>
          </ns3:TrackPointExtension>
        </extensions>
      </trkpt>
      <trkpt lat="31.26950123347342014312744140625" lon="121.47939766757190227508544921875">
        <ele>9</ele>
        <time>2026-09-09T08:39:02.000Z</time>
        <extensions>
          <ns3:TrackPointExtension>
            <ns3:hr>102</ns3:hr>
            <ns3:cad>82</ns3:cad>
          </ns3:TrackPointExtension>
        </extensions>
      </trkpt>
      <trkpt lat="31.269558481872081756591796875" lon="121.47940370254218578338623046875">
        <ele>9</ele>
        <time>2026-09-09T08:39:05.000Z</time>
        <extensions>
          <ns3:TrackPointExtension>
            <ns3:hr>101</ns3:hr>
            <ns3:cad>82</ns3:cad>
          </ns3:TrackPointExtension>
        </extensions>
      </trkpt>
      <trkpt lat="31.2696070969104766845703125" lon="121.47942398674786090850830078125">
        <ele>9.19999980926513671875</ele>
        <time>2026-09-09T08:39:08.000Z</time>
        <extensions>
          <ns3:TrackPointExtension>
            <ns3:hr>100</ns3:hr>
            <ns3:cad>53</ns3:cad>
          </ns3:TrackPointExtension>
        </extensions>
      </trkpt>
      <trkpt lat="31.26962947659194469451904296875" lon="121.47941811941564083099365234375">
        <ele>9</ele>
        <time>2026-09-09T08:39:10.000Z</time>
        <extensions>
          <ns3:TrackPointExtension>
            <ns3:hr>100</ns3:hr>
            <ns3:cad>52</ns3:cad>
          </ns3:TrackPointExtension>
        </extensions>
      </trkpt>
      <trkpt lat="31.2696500122547149658203125" lon="121.479432284832000732421875">
        <ele>9</ele>
        <time>2026-09-09T08:39:13.000Z</time>
        <extensions>
          <ns3:TrackPointExtension>
            <ns3:hr>97</ns3:hr>
            <ns3:cad>53</ns3:cad>
          </ns3:TrackPointExtension>
        </extensions>
      </trkpt>
      <trkpt lat="31.26966317184269428253173828125" lon="121.4794351346790790557861328125">
        <ele>9</ele>
        <time>2026-09-09T08:39:15.000Z</time>
        <extensions>
          <ns3:TrackPointExtension>
            <ns3:hr>93</ns3:hr>
            <ns3:cad>0</ns3:cad>
          </ns3:TrackPointExtension>
        </extensions>
      </trkpt>
      <trkpt lat="31.26968085765838623046875" lon="121.47943253628909587860107421875">
        <ele>9</ele>
        <time>2026-09-09T08:39:17.000Z</time>
        <extensions>
          <ns3:TrackPointExtension>
            <ns3:hr>90</ns3:hr>
            <ns3:cad>0</ns3:cad>
          </ns3:TrackPointExtension>
        </extensions>
      </trkpt>
      <trkpt lat="31.269691251218318939208984375" lon="121.47943438030779361724853515625">
        <ele>9</ele>
        <time>2026-09-09T08:39:18.000Z</time>
        <extensions>
          <ns3:TrackPointExtension>
            <ns3:hr>90</ns3:hr>
            <ns3:cad>55</ns3:cad>
          </ns3:TrackPointExtension>
        </extensions>
      </trkpt>
      <trkpt lat="31.2697323225438594818115234375" lon="121.4794358052313327789306640625">
        <ele>9.19999980926513671875</ele>
        <time>2026-09-09T08:39:24.000Z</time>
        <extensions>
          <ns3:TrackPointExtension>
            <ns3:hr>89</ns3:hr>
            <ns3:cad>54</ns3:cad>
          </ns3:TrackPointExtension>
        </extensions>
      </trkpt>
      <trkpt lat="31.26976870000362396240234375" lon="121.479425914585590362548828125">
        <ele>9.3999996185302734375</ele>
        <time>2026-09-09T08:39:27.000Z</time>
        <extensions>
          <ns3:TrackPointExtension>
            <ns3:hr>88</ns3:hr>
            <ns3:cad>55</ns3:cad>
          </ns3:TrackPointExtension>
        </extensions>
      </trkpt>
      <trkpt lat="31.2698325701057910919189453125" lon="121.47942096926271915435791015625">
        <ele>9.6000003814697265625</ele>
        <time>2026-09-09T08:39:31.000Z</time>
        <extensions>
          <ns3:TrackPointExtension>
            <ns3:hr>86</ns3:hr>
            <ns3:cad>54</ns3:cad>
          </ns3:TrackPointExtension>
        </extensions>
      </trkpt>
      <trkpt lat="31.269917897880077362060546875" lon="121.4793965779244899749755859375">
        <ele>9.80000019073486328125</ele>
        <time>2026-09-09T08:39:36.000Z</time>
        <extensions>
          <ns3:TrackPointExtension>
            <ns3:hr>83</ns3:hr>
            <ns3:cad>56</ns3:cad>
          </ns3:TrackPointExtension>
        </extensions>
      </trkpt>
      <trkpt lat="31.26993633806705474853515625" lon="121.47939146496355533599853515625">
        <ele>9.80000019073486328125</ele>
        <time>2026-09-09T08:39:37.000Z</time>
        <extensions>
          <ns3:TrackPointExtension>
            <ns3:hr>81</ns3:hr>
            <ns3:cad>56</ns3:cad>
          </ns3:TrackPointExtension>
        </extensions>
      </trkpt>
      <trkpt lat="31.26997254788875579833984375" lon="121.47938107140362262725830078125">
        <ele>9.6000003814697265625</ele>
        <time>2026-09-09T08:39:39.000Z</time>
        <extensions>
          <ns3:TrackPointExtension>
            <ns3:hr>79</ns3:hr>
            <ns3:cad>56</ns3:cad>
          </ns3:TrackPointExtension>
        </extensions>
      </trkpt>
      <trkpt lat="31.27001102082431316375732421875" lon="121.47934838198125362396240234375">
        <ele>9.6000003814697265625</ele>
        <time>2026-09-09T08:39:43.000Z</time>
        <extensions>
          <ns3:TrackPointExtension>
            <ns3:hr>76</ns3:hr>
            <ns3:cad>56</ns3:cad>
          </ns3:TrackPointExtension>
        </extensions>
      </trkpt>
      <trkpt lat="31.2700290419161319732666015625" lon="121.479332707822322845458984375">
        <ele>9.6000003814697265625</ele>
        <time>2026-09-09T08:39:46.000Z</time>
        <extensions>
          <ns3:TrackPointExtension>
            <ns3:hr>75</ns3:hr>
            <ns3:cad>54</ns3:cad>
          </ns3:TrackPointExtension>
        </extensions>
      </trkpt>
      <trkpt lat="31.27001278102397918701171875" lon="121.479243524372577667236328125">
        <ele>10</ele>
        <time>2026-09-09T08:39:54.000Z</time>
        <extensions>
          <ns3:TrackPointExtension>
            <ns3:hr>72</ns3:hr>
            <ns3:cad>54</ns3:cad>
          </ns3:TrackPointExtension>
        </extensions>
      </trkpt>
      <trkpt lat="31.27000599168241024017333984375" lon="121.4792141877114772796630859375">
        <ele>10.19999980926513671875</ele>
        <time>2026-09-09T08:39:56.000Z</time>
        <extensions>
          <ns3:TrackPointExtension>
            <ns3:hr>73</ns3:hr>
            <ns3:cad>54</ns3:cad>
          </ns3:TrackPointExtension>
        </extensions>
      </trkpt>
      <trkpt lat="31.27001604996621608734130859375" lon="121.479059122502803802490234375">
        <ele>10</ele>
        <time>2026-09-09T08:40:07.000Z</time>
        <extensions>
          <ns3:TrackPointExtension>
            <ns3:hr>73</ns3:hr>
            <ns3:cad>53</ns3:cad>
          </ns3:TrackPointExtension>
        </extensions>
      </trkpt>
      <trkpt lat="31.27005075104534626007080078125" lon="121.4789737947285175323486328125">
        <ele>9.3999996185302734375</ele>
        <time>2026-09-09T08:40:16.000Z</time>
        <extensions>
          <ns3:TrackPointExtension>
            <ns3:hr>71</ns3:hr>
            <ns3:cad>0</ns3:cad>
          </ns3:TrackPointExtension>
        </extensions>
      </trkpt>
      <trkpt lat="31.27004806883633136749267578125" lon="121.47897253744304180145263671875">
        <ele>9.3999996185302734375</ele>
        <time>2026-09-09T08:40:27.000Z</time>
        <extensions>
          <ns3:TrackPointExtension>
            <ns3:hr>73</ns3:hr>
            <ns3:cad>0</ns3:cad>
          </ns3:TrackPointExtension>
        </extensions>
      </trkpt>
      <trkpt lat="31.27004228532314300537109375" lon="121.4790017902851104736328125">
        <ele>9.6000003814697265625</ele>
        <time>2026-09-09T08:40:41.000Z</time>
        <extensions>
          <ns3:TrackPointExtension>
            <ns3:hr>76</ns3:hr>
            <ns3:cad>54</ns3:cad>
          </ns3:TrackPointExtension>
        </extensions>
      </trkpt>
      <trkpt lat="31.2700300477445125579833984375" lon="121.47907764650881290435791015625">
        <ele>9.80000019073486328125</ele>
        <time>2026-09-09T08:40:44.000Z</time>
        <extensions>
          <ns3:TrackPointExtension>
            <ns3:hr>74</ns3:hr>
            <ns3:cad>55</ns3:cad>
          </ns3:TrackPointExtension>
        </extensions>
      </trkpt>
      <trkpt lat="31.2700166366994380950927734375" lon="121.4792306162416934967041015625">
        <ele>10</ele>
        <time>2026-09-09T08:40:53.000Z</time>
        <extensions>
          <ns3:TrackPointExtension>
            <ns3:hr>75</ns3:hr>
            <ns3:cad>54</ns3:cad>
          </ns3:TrackPointExtension>
        </extensions>
      </trkpt>
      <trkpt lat="31.270017810165882110595703125" lon="121.47924846969544887542724609375">
        <ele>10</ele>
        <time>2026-09-09T08:40:54.000Z</time>
        <extensions>
          <ns3:TrackPointExtension>
            <ns3:hr>74</ns3:hr>
            <ns3:cad>54</ns3:cad>
          </ns3:TrackPointExtension>
        </extensions>
      </trkpt>
      <trkpt lat="31.27001219429075717926025390625" lon="121.4792976714670658111572265625">
        <ele>9.80000019073486328125</ele>
        <time>2026-09-09T08:40:57.000Z</time>
        <extensions>
          <ns3:TrackPointExtension>
            <ns3:hr>72</ns3:hr>
            <ns3:cad>52</ns3:cad>
          </ns3:TrackPointExtension>
        </extensions>
      </trkpt>
      <trkpt lat="31.2700069136917591094970703125" lon="121.47934385575354099273681640625">
        <ele>9.6000003814697265625</ele>
        <time>2026-09-09T08:41:00.000Z</time>
        <extensions>
          <ns3:TrackPointExtension>
            <ns3:hr>71</ns3:hr>
            <ns3:cad>0</ns3:cad>
          </ns3:TrackPointExtension>
        </extensions>
      </trkpt>
      <trkpt lat="31.2700045667588710784912109375" lon="121.4793737791478633880615234375">
        <ele>9.6000003814697265625</ele>
        <time>2026-09-09T08:41:02.000Z</time>
        <extensions>
          <ns3:TrackPointExtension>
            <ns3:hr>71</ns3:hr>
            <ns3:cad>53</ns3:cad>
          </ns3:TrackPointExtension>
        </extensions>
      </trkpt>
      <trkpt lat="31.26999928615987300872802734375" lon="121.47942733950912952423095703125">
        <ele>9.6000003814697265625</ele>
        <time>2026-09-09T08:41:07.000Z</time>
        <extensions>
          <ns3:TrackPointExtension>
            <ns3:hr>71</ns3:hr>
            <ns3:cad>53</ns3:cad>
          </ns3:TrackPointExtension>
        </extensions>
      </trkpt>
      <trkpt lat="31.2700196541845798492431640625" lon="121.479446701705455780029296875">
        <ele>9.6000003814697265625</ele>
        <time>2026-09-09T08:41:14.000Z</time>
        <extensions>
          <ns3:TrackPointExtension>
            <ns3:hr>71</ns3:hr>
            <ns3:cad>0</ns3:cad>
          </ns3:TrackPointExtension>
        </extensions>
      </trkpt>
      <trkpt lat="31.27001839689910411834716796875" lon="121.47944645024836063385009765625">
        <ele>9.6000003814697265625</ele>
        <time>2026-09-09T08:41:25.000Z</time>
        <extensions>
          <ns3:TrackPointExtension>
            <ns3:hr>68</ns3:hr>
            <ns3:cad>0</ns3:cad>
          </ns3:TrackPointExtension>
        </extensions>
      </trkpt>
      <trkpt lat="31.27001839689910411834716796875" lon="121.47944645024836063385009765625">
        <ele>9.6000003814697265625</ele>
        <time>2026-09-09T08:41:28.000Z</time>
        <extensions>
          <ns3:TrackPointExtension>
            <ns3:hr>65</ns3:hr>
            <ns3:cad>0</ns3:cad>
          </ns3:TrackPointExtension>
        </extensions>
      </trkpt>
      <trkpt lat="31.270060725510120391845703125" lon="121.4794592745602130889892578125">
        <ele>9.3999996185302734375</ele>
        <time>2026-09-09T08:41:32.000Z</time>
        <extensions>
          <ns3:TrackPointExtension>
            <ns3:hr>62</ns3:hr>
            <ns3:cad>0</ns3:cad>
          </ns3:TrackPointExtension>
        </extensions>
      </trkpt>
      <trkpt lat="31.2700880505144596099853515625" lon="121.47945801727473735809326171875">
        <ele>9.19999980926513671875</ele>
        <time>2026-09-09T08:41:34.000Z</time>
        <extensions>
          <ns3:TrackPointExtension>
            <ns3:hr>62</ns3:hr>
            <ns3:cad>50</ns3:cad>
          </ns3:TrackPointExtension>
        </extensions>
      </trkpt>
      <trkpt lat="31.270155943930149078369140625" lon="121.47946187295019626617431640625">
        <ele>9</ele>
        <time>2026-09-09T08:41:41.000Z</time>
        <extensions>
          <ns3:TrackPointExtension>
            <ns3:hr>64</ns3:hr>
            <ns3:cad>55</ns3:cad>
          </ns3:TrackPointExtension>
        </extensions>
      </trkpt>
      <trkpt lat="31.27016139216721057891845703125" lon="121.479472182691097259521484375">
        <ele>9</ele>
        <time>2026-09-09T08:41:46.000Z</time>
        <extensions>
          <ns3:TrackPointExtension>
            <ns3:hr>67</ns3:hr>
            <ns3:cad>57</ns3:cad>
          </ns3:TrackPointExtension>
        </extensions>
      </trkpt>
      <trkpt lat="31.270145885646343231201171875" lon="121.4794827438890933990478515625">
        <ele>9</ele>
        <time>2026-09-09T08:41:48.000Z</time>
        <extensions>
          <ns3:TrackPointExtension>
            <ns3:hr>68</ns3:hr>
            <ns3:cad>50</ns3:cad>
          </ns3:TrackPointExtension>
        </extensions>
      </trkpt>
      <trkpt lat="31.27012954093515872955322265625" lon="121.47947964258491992950439453125">
        <ele>9.19999980926513671875</ele>
        <time>2026-09-09T08:41:49.000Z</time>
        <extensions>
          <ns3:TrackPointExtension>
            <ns3:hr>68</ns3:hr>
            <ns3:cad>50</ns3:cad>
          </ns3:TrackPointExtension>
        </extensions>
      </trkpt>
      <trkpt lat="31.27016407437622547149658203125" lon="121.47955407388508319854736328125">
        <ele>9</ele>
        <time>2026-09-09T08:41:54.000Z</time>
        <extensions>
          <ns3:TrackPointExtension>
            <ns3:hr>68</ns3:hr>
            <ns3:cad>55</ns3:cad>
          </ns3:TrackPointExtension>
        </extensions>
      </trkpt>
      <trkpt lat="31.27019491977989673614501953125" lon="121.479567401111125946044921875">
        <ele>9</ele>
        <time>2026-09-09T08:41:57.000Z</time>
        <extensions>
          <ns3:TrackPointExtension>
            <ns3:hr>67</ns3:hr>
            <ns3:cad>55</ns3:cad>
          </ns3:TrackPointExtension>
        </extensions>
      </trkpt>
      <trkpt lat="31.2702131085097789764404296875" lon="121.479580141603946685791015625">
        <ele>9</ele>
        <time>2026-09-09T08:41:58.000Z</time>
        <extensions>
          <ns3:TrackPointExtension>
            <ns3:hr>70</ns3:hr>
            <ns3:cad>55</ns3:cad>
          </ns3:TrackPointExtension>
        </extensions>
      </trkpt>
      <trkpt lat="31.27025543712079524993896484375" lon="121.47959212772548198699951171875">
        <ele>9</ele>
        <time>2026-09-09T08:42:01.000Z</time>
        <extensions>
          <ns3:TrackPointExtension>
            <ns3:hr>68</ns3:hr>
            <ns3:cad>78</ns3:cad>
          </ns3:TrackPointExtension>
        </extensions>
      </trkpt>
      <trkpt lat="31.2702828459441661834716796875" lon="121.47960034199059009552001953125">
        <ele>9</ele>
        <time>2026-09-09T08:42:03.000Z</time>
        <extensions>
          <ns3:TrackPointExtension>
            <ns3:hr>67</ns3:hr>
            <ns3:cad>78</ns3:cad>
          </ns3:TrackPointExtension>
        </extensions>
      </trkpt>
      <trkpt lat="31.2702945806086063385009765625" lon="121.479595564305782318115234375">
        <ele>9</ele>
        <time>2026-09-09T08:42:04.000Z</time>
        <extensions>
          <ns3:TrackPointExtension>
            <ns3:hr>66</ns3:hr>
            <ns3:cad>78</ns3:cad>
          </ns3:TrackPointExtension>
        </extensions>
      </trkpt>
      <trkpt lat="31.27033607102930545806884765625" lon="121.47958961315453052520751953125">
        <ele>9</ele>
        <time>2026-09-09T08:42:07.000Z</time>
        <extensions>
          <ns3:TrackPointExtension>
            <ns3:hr>68</ns3:hr>
            <ns3:cad>80</ns3:cad>
          </ns3:TrackPointExtension>
        </extensions>
      </trkpt>
      <trkpt lat="31.270396001636981964111328125" lon="121.4796118251979351043701171875">
        <ele>9</ele>
        <time>2026-09-09T08:42:09.000Z</time>
        <extensions>
          <ns3:TrackPointExtension>
            <ns3:hr>71</ns3:hr>
            <ns3:cad>80</ns3:cad>
          </ns3:TrackPointExtension>
        </extensions>
      </trkpt>
      <trkpt lat="31.2704276852309703826904296875" lon="121.4796279184520244598388671875">
        <ele>9</ele>
        <time>2026-09-09T08:42:10.000Z</time>
        <extensions>
          <ns3:TrackPointExtension>
            <ns3:hr>74</ns3:hr>
            <ns3:cad>81</ns3:cad>
          </ns3:TrackPointExtension>
        </extensions>
      </trkpt>
      <trkpt lat="31.27046070992946624755859375" lon="121.4796393178403377532958984375">
        <ele>8.80000019073486328125</ele>
        <time>2026-09-09T08:42:11.000Z</time>
        <extensions>
          <ns3:TrackPointExtension>
            <ns3:hr>77</ns3:hr>
            <ns3:cad>80</ns3:cad>
          </ns3:TrackPointExtension>
        </extensions>
      </trkpt>
      <trkpt lat="31.270488537847995758056640625" lon="121.479655914008617401123046875">
        <ele>8.80000019073486328125</ele>
        <time>2026-09-09T08:42:12.000Z</time>
        <extensions>
          <ns3:TrackPointExtension>
            <ns3:hr>79</ns3:hr>
            <ns3:cad>81</ns3:cad>
          </ns3:TrackPointExtension>
        </extensions>
      </trkpt>
      <trkpt lat="31.27050672657787799835205078125" lon="121.47965549491345882415771484375">
        <ele>8.80000019073486328125</ele>
        <time>2026-09-09T08:42:13.000Z</time>
        <extensions>
          <ns3:TrackPointExtension>
            <ns3:hr>78</ns3:hr>
            <ns3:cad>81</ns3:cad>
          </ns3:TrackPointExtension>
        </extensions>
      </trkpt>
      <trkpt lat="31.270545534789562225341796875" lon="121.4796668104827404022216796875">
        <ele>8.6000003814697265625</ele>
        <time>2026-09-09T08:42:15.000Z</time>
        <extensions>
          <ns3:TrackPointExtension>
            <ns3:hr>81</ns3:hr>
            <ns3:cad>81</ns3:cad>
          </ns3:TrackPointExtension>
        </extensions>
      </trkpt>
      <trkpt lat="31.27056322060525417327880859375" lon="121.47967527620494365692138671875">
        <ele>8.6000003814697265625</ele>
        <time>2026-09-09T08:42:16.000Z</time>
        <extensions>
          <ns3:TrackPointExtension>
            <ns3:hr>83</ns3:hr>
            <ns3:cad>78</ns3:cad>
          </ns3:TrackPointExtension>
        </extensions>
      </trkpt>
      <trkpt lat="31.270592473447322845458984375" lon="121.4796777069568634033203125">
        <ele>8.6000003814697265625</ele>
        <time>2026-09-09T08:42:18.000Z</time>
        <extensions>
          <ns3:TrackPointExtension>
            <ns3:hr>87</ns3:hr>
            <ns3:cad>78</ns3:cad>
          </ns3:TrackPointExtension>
        </extensions>
      </trkpt>
      <trkpt lat="31.27062574960291385650634765625" lon="121.47965817712247371673583984375">
        <ele>8.3999996185302734375</ele>
        <time>2026-09-09T08:42:20.000Z</time>
        <extensions>
          <ns3:TrackPointExtension>
            <ns3:hr>90</ns3:hr>
            <ns3:cad>60</ns3:cad>
          </ns3:TrackPointExtension>
        </extensions>
      </trkpt>
      <trkpt lat="31.27063773572444915771484375" lon="121.47966287098824977874755859375">
        <ele>8.3999996185302734375</ele>
        <time>2026-09-09T08:42:21.000Z</time>
        <extensions>
          <ns3:TrackPointExtension>
            <ns3:hr>91</ns3:hr>
            <ns3:cad>0</ns3:cad>
          </ns3:TrackPointExtension>
        </extensions>
      </trkpt>
      <trkpt lat="31.2707005999982357025146484375" lon="121.479679048061370849609375">
        <ele>8.19999980926513671875</ele>
        <time>2026-09-09T08:42:27.000Z</time>
        <extensions>
          <ns3:TrackPointExtension>
            <ns3:hr>92</ns3:hr>
            <ns3:cad>53</ns3:cad>
          </ns3:TrackPointExtension>
        </extensions>
      </trkpt>
      <trkpt lat="31.27078349702060222625732421875" lon="121.479692123830318450927734375">
        <ele>8.3999996185302734375</ele>
        <time>2026-09-09T08:42:34.000Z</time>
        <extensions>
          <ns3:TrackPointExtension>
            <ns3:hr>94</ns3:hr>
            <ns3:cad>59</ns3:cad>
          </ns3:TrackPointExtension>
        </extensions>
      </trkpt>
      <trkpt lat="31.27080126665532588958740234375" lon="121.47968986071646213531494140625">
        <ele>8.3999996185302734375</ele>
        <time>2026-09-09T08:42:36.000Z</time>
        <extensions>
          <ns3:TrackPointExtension>
            <ns3:hr>95</ns3:hr>
            <ns3:cad>59</ns3:cad>
          </ns3:TrackPointExtension>
        </extensions>
      </trkpt>
      <trkpt lat="31.27091467380523681640625" lon="121.4796938002109527587890625">
        <ele>8.80000019073486328125</ele>
        <time>2026-09-09T08:42:44.000Z</time>
        <extensions>
          <ns3:TrackPointExtension>
            <ns3:hr>92</ns3:hr>
            <ns3:cad>80</ns3:cad>
          </ns3:TrackPointExtension>
        </extensions>
      </trkpt>
      <trkpt lat="31.2710626982152462005615234375" lon="121.47973478771746158599853515625">
        <ele>9.19999980926513671875</ele>
        <time>2026-09-09T08:42:51.000Z</time>
        <extensions>
          <ns3:TrackPointExtension>
            <ns3:hr>92</ns3:hr>
            <ns3:cad>81</ns3:cad>
          </ns3:TrackPointExtension>
        </extensions>
      </trkpt>
      <trkpt lat="31.27112480811774730682373046875" lon="121.4797528088092803955078125">
        <ele>9.19999980926513671875</ele>
        <time>2026-09-09T08:42:54.000Z</time>
        <extensions>
          <ns3:TrackPointExtension>
            <ns3:hr>95</ns3:hr>
            <ns3:cad>81</ns3:cad>
          </ns3:TrackPointExtension>
        </extensions>
      </trkpt>
      <trkpt lat="31.27120510675013065338134765625" lon="121.479786001145839691162109375">
        <ele>9.19999980926513671875</ele>
        <time>2026-09-09T08:42:59.000Z</time>
        <extensions>
          <ns3:TrackPointExtension>
            <ns3:hr>97</ns3:hr>
            <ns3:cad>82</ns3:cad>
          </ns3:TrackPointExtension>
        </extensions>
      </trkpt>
      <trkpt lat="31.27129881642758846282958984375" lon="121.47983537055552005767822265625">
        <ele>9.19999980926513671875</ele>
        <time>2026-09-09T08:43:04.000Z</time>
        <extensions>
          <ns3:TrackPointExtension>
            <ns3:hr>100</ns3:hr>
            <ns3:cad>81</ns3:cad>
          </ns3:TrackPointExtension>
        </extensions>
      </trkpt>
      <trkpt lat="31.2713183462619781494140625" lon="121.4798357896506786346435546875">
        <ele>9.19999980926513671875</ele>
        <time>2026-09-09T08:43:05.000Z</time>
        <extensions>
          <ns3:TrackPointExtension>
            <ns3:hr>100</ns3:hr>
            <ns3:cad>81</ns3:cad>
          </ns3:TrackPointExtension>
        </extensions>
      </trkpt>
      <trkpt lat="31.2713369540870189666748046875" lon="121.47983654402196407318115234375">
        <ele>9</ele>
        <time>2026-09-09T08:43:06.000Z</time>
        <extensions>
          <ns3:TrackPointExtension>
            <ns3:hr>101</ns3:hr>
            <ns3:cad>81</ns3:cad>
          </ns3:TrackPointExtension>
        </extensions>
      </trkpt>
      <trkpt lat="31.2715159915387630462646484375" lon="121.47986101917922496795654296875">
        <ele>8.80000019073486328125</ele>
        <time>2026-09-09T08:43:15.000Z</time>
        <extensions>
          <ns3:TrackPointExtension>
            <ns3:hr>104</ns3:hr>
            <ns3:cad>82</ns3:cad>
          </ns3:TrackPointExtension>
        </extensions>
      </trkpt>
      <trkpt lat="31.27155899070203304290771484375" lon="121.47986470721662044525146484375">
        <ele>8.80000019073486328125</ele>
        <time>2026-09-09T08:43:17.000Z</time>
        <extensions>
          <ns3:TrackPointExtension>
            <ns3:hr>105</ns3:hr>
            <ns3:cad>82</ns3:cad>
          </ns3:TrackPointExtension>
        </extensions>
      </trkpt>
      <trkpt lat="31.2717225216329097747802734375" lon="121.479891277849674224853515625">
        <ele>9.3999996185302734375</ele>
        <time>2026-09-09T08:43:26.000Z</time>
        <extensions>
          <ns3:TrackPointExtension>
            <ns3:hr>106</ns3:hr>
            <ns3:cad>82</ns3:cad>
          </ns3:TrackPointExtension>
        </extensions>
      </trkpt>
      <trkpt lat="31.27188035286962985992431640625" lon="121.4799192734062671661376953125">
        <ele>10.19999980926513671875</ele>
        <time>2026-09-09T08:43:34.000Z</time>
        <extensions>
          <ns3:TrackPointExtension>
            <ns3:hr>107</ns3:hr>
            <ns3:cad>81</ns3:cad>
          </ns3:TrackPointExtension>
        </extensions>
      </trkpt>
      <trkpt lat="31.2720470689237117767333984375" lon="121.47996914573013782501220703125">
        <ele>11.80000019073486328125</ele>
        <time>2026-09-09T08:43:41.000Z</time>
        <extensions>
          <ns3:TrackPointExtension>
            <ns3:hr>107</ns3:hr>
            <ns3:cad>82</ns3:cad>
          </ns3:TrackPointExtension>
        </extensions>
      </trkpt>
      <trkpt lat="31.27223943360149860382080078125" lon="121.48002077825367450714111328125">
        <ele>11</ele>
        <time>2026-09-09T08:43:50.000Z</time>
        <extensions>
          <ns3:TrackPointExtension>
            <ns3:hr>109</ns3:hr>
            <ns3:cad>81</ns3:cad>
          </ns3:TrackPointExtension>
        </extensions>
      </trkpt>
      <trkpt lat="31.2722844444215297698974609375" lon="121.4800272323191165924072265625">
        <ele>10.3999996185302734375</ele>
        <time>2026-09-09T08:43:53.000Z</time>
        <extensions>
          <ns3:TrackPointExtension>
            <ns3:hr>111</ns3:hr>
            <ns3:cad>81</ns3:cad>
          </ns3:TrackPointExtension>
        </extensions>
      </trkpt>
      <trkpt lat="31.27231679856777191162109375" lon="121.4800275675952434539794921875">
        <ele>10.19999980926513671875</ele>
        <time>2026-09-09T08:43:55.000Z</time>
        <extensions>
          <ns3:TrackPointExtension>
            <ns3:hr>111</ns3:hr>
            <ns3:cad>0</ns3:cad>
          </ns3:TrackPointExtension>
        </extensions>
      </trkpt>
      <trkpt lat="31.27239952795207500457763671875" lon="121.4800473488867282867431640625">
        <ele>9.19999980926513671875</ele>
        <time>2026-09-09T08:44:02.000Z</time>
        <extensions>
          <ns3:TrackPointExtension>
            <ns3:hr>110</ns3:hr>
            <ns3:cad>0</ns3:cad>
          </ns3:TrackPointExtension>
        </extensions>
      </trkpt>
      <trkpt lat="31.2724587880074977874755859375" lon="121.48004055954515933990478515625">
        <ele>8.3999996185302734375</ele>
        <time>2026-09-09T08:44:08.000Z</time>
        <extensions>
          <ns3:TrackPointExtension>
            <ns3:hr>112</ns3:hr>
            <ns3:cad>0</ns3:cad>
          </ns3:TrackPointExtension>
        </extensions>
      </trkpt>
      <trkpt lat="31.27247395925223827362060546875" lon="121.48004659451544284820556640625">
        <ele>8.19999980926513671875</ele>
        <time>2026-09-09T08:44:10.000Z</time>
        <extensions>
          <ns3:TrackPointExtension>
            <ns3:hr>113</ns3:hr>
            <ns3:cad>0</ns3:cad>
          </ns3:TrackPointExtension>
        </extensions>
      </trkpt>
      <trkpt lat="31.2725291959941387176513671875" lon="121.4800486899912357330322265625">
        <ele>7.19999980926513671875</ele>
        <time>2026-09-09T08:44:14.000Z</time>
        <extensions>
          <ns3:TrackPointExtension>
            <ns3:hr>110</ns3:hr>
            <ns3:cad>0</ns3:cad>
          </ns3:TrackPointExtension>
        </extensions>
      </trkpt>
      <trkpt lat="31.2725365720689296722412109375" lon="121.48004449903964996337890625">
        <ele>7.19999980926513671875</ele>
        <time>2026-09-09T08:44:15.000Z</time>
        <extensions>
          <ns3:TrackPointExtension>
            <ns3:hr>110</ns3:hr>
            <ns3:cad>0</ns3:cad>
          </ns3:TrackPointExtension>
        </extensions>
      </trkpt>
      <trkpt lat="31.272625587880611419677734375" lon="121.48007090203464031219482421875">
        <ele>5.599999904632568359375</ele>
        <time>2026-09-09T08:44:20.000Z</time>
        <extensions>
          <ns3:TrackPointExtension>
            <ns3:hr>108</ns3:hr>
            <ns3:cad>80</ns3:cad>
          </ns3:TrackPointExtension>
        </extensions>
      </trkpt>
      <trkpt lat="31.27271653153002262115478515625" lon="121.48009319789707660675048828125">
        <ele>5.400000095367431640625</ele>
        <time>2026-09-09T08:44:26.000Z</time>
        <extensions>
          <ns3:TrackPointExtension>
            <ns3:hr>104</ns3:hr>
            <ns3:cad>81</ns3:cad>
          </ns3:TrackPointExtension>
        </extensions>
      </trkpt>
      <trkpt lat="31.2727347202599048614501953125" lon="121.480094455182552337646484375">
        <ele>5.400000095367431640625</ele>
        <time>2026-09-09T08:44:27.000Z</time>
        <extensions>
          <ns3:TrackPointExtension>
            <ns3:hr>102</ns3:hr>
            <ns3:cad>81</ns3:cad>
          </ns3:TrackPointExtension>
        </extensions>
      </trkpt>
      <trkpt lat="31.2727920524775981903076171875" lon="121.480097137391567230224609375">
        <ele>5.599999904632568359375</ele>
        <time>2026-09-09T08:44:30.000Z</time>
        <extensions>
          <ns3:TrackPointExtension>
            <ns3:hr>99</ns3:hr>
            <ns3:cad>80</ns3:cad>
          </ns3:TrackPointExtension>
        </extensions>
      </trkpt>
      <trkpt lat="31.272823400795459747314453125" lon="121.48007844574749469757080078125">
        <ele>5.599999904632568359375</ele>
        <time>2026-09-09T08:44:32.000Z</time>
        <extensions>
          <ns3:TrackPointExtension>
            <ns3:hr>98</ns3:hr>
            <ns3:cad>80</ns3:cad>
          </ns3:TrackPointExtension>
        </extensions>
      </trkpt>
      <trkpt lat="31.2728782184422016143798828125" lon="121.47997451014816761016845703125">
        <ele>4.400000095367431640625</ele>
        <time>2026-09-09T08:44:37.000Z</time>
        <extensions>
          <ns3:TrackPointExtension>
            <ns3:hr>98</ns3:hr>
            <ns3:cad>80</ns3:cad>
          </ns3:TrackPointExtension>
        </extensions>
      </trkpt>
      <trkpt lat="31.27296455204486846923828125" lon="121.47992941550910472869873046875">
        <ele>4</ele>
        <time>2026-09-09T08:44:41.000Z</time>
        <extensions>
          <ns3:TrackPointExtension>
            <ns3:hr>101</ns3:hr>
            <ns3:cad>81</ns3:cad>
          </ns3:TrackPointExtension>
        </extensions>
      </trkpt>
      <trkpt lat="31.273023895919322967529296875" lon="121.47988968528807163238525390625">
        <ele>3.7999999523162841796875</ele>
        <time>2026-09-09T08:44:43.000Z</time>
        <extensions>
          <ns3:TrackPointExtension>
            <ns3:hr>104</ns3:hr>
            <ns3:cad>81</ns3:cad>
          </ns3:TrackPointExtension>
        </extensions>
      </trkpt>
      <trkpt lat="31.27318541519343852996826171875" lon="121.47975188679993152618408203125">
        <ele>4.400000095367431640625</ele>
        <time>2026-09-09T08:44:50.000Z</time>
        <extensions>
          <ns3:TrackPointExtension>
            <ns3:hr>104</ns3:hr>
            <ns3:cad>82</ns3:cad>
          </ns3:TrackPointExtension>
        </extensions>
      </trkpt>
      <trkpt lat="31.27330561168491840362548828125" lon="121.47974987514317035675048828125">
        <ele>6.400000095367431640625</ele>
        <time>2026-09-09T08:44:55.000Z</time>
        <extensions>
          <ns3:TrackPointExtension>
            <ns3:hr>105</ns3:hr>
            <ns3:cad>81</ns3:cad>
          </ns3:TrackPointExtension>
        </extensions>
      </trkpt>
      <trkpt lat="31.273374594748020172119140625" lon="121.47975624538958072662353515625">
        <ele>7.80000019073486328125</ele>
        <time>2026-09-09T08:44:58.000Z</time>
        <extensions>
          <ns3:TrackPointExtension>
            <ns3:hr>109</ns3:hr>
            <ns3:cad>81</ns3:cad>
          </ns3:TrackPointExtension>
        </extensions>
      </trkpt>
      <trkpt lat="31.27346436493098735809326171875" lon="121.47977133281528949737548828125">
        <ele>9.3999996185302734375</ele>
        <time>2026-09-09T08:45:02.000Z</time>
        <extensions>
          <ns3:TrackPointExtension>
            <ns3:hr>110</ns3:hr>
            <ns3:cad>81</ns3:cad>
          </ns3:TrackPointExtension>
        </extensions>
      </trkpt>
      <trkpt lat="31.27359210513532161712646484375" lon="121.479818858206272125244140625">
        <ele>11.3999996185302734375</ele>
        <time>2026-09-09T08:45:08.000Z</time>
        <extensions>
          <ns3:TrackPointExtension>
            <ns3:hr>113</ns3:hr>
            <ns3:cad>82</ns3:cad>
          </ns3:TrackPointExtension>
        </extensions>
      </trkpt>
      <trkpt lat="31.2736272253096103668212890625" lon="121.4798371307551860809326171875">
        <ele>11.80000019073486328125</ele>
        <time>2026-09-09T08:45:10.000Z</time>
        <extensions>
          <ns3:TrackPointExtension>
            <ns3:hr>113</ns3:hr>
            <ns3:cad>83</ns3:cad>
          </ns3:TrackPointExtension>
        </extensions>
      </trkpt>
      <trkpt lat="31.27371833659708499908447265625" lon="121.47989421151578426361083984375">
        <ele>13.19999980926513671875</ele>
        <time>2026-09-09T08:45:15.000Z</time>
        <extensions>
          <ns3:TrackPointExtension>
            <ns3:hr>116</ns3:hr>
            <ns3:cad>82</ns3:cad>
          </ns3:TrackPointExtension>
        </extensions>
      </trkpt>
      <trkpt lat="31.273835264146327972412109375" lon="121.47997677326202392578125">
        <ele>13.6000003814697265625</ele>
        <time>2026-09-09T08:45:21.000Z</time>
        <extensions>
          <ns3:TrackPointExtension>
            <ns3:hr>118</ns3:hr>
            <ns3:cad>82</ns3:cad>
          </ns3:TrackPointExtension>
        </extensions>
      </trkpt>
      <trkpt lat="31.27394984476268291473388671875" lon="121.4800357818603515625">
        <ele>13</ele>
        <time>2026-09-09T08:45:27.000Z</time>
        <extensions>
          <ns3:TrackPointExtension>
            <ns3:hr>119</ns3:hr>
            <ns3:cad>82</ns3:cad>
          </ns3:TrackPointExtension>
        </extensions>
      </trkpt>
      <trkpt lat="31.27400181256234645843505859375" lon="121.4800961315631866455078125">
        <ele>12.6000003814697265625</ele>
        <time>2026-09-09T08:45:33.000Z</time>
        <extensions>
          <ns3:TrackPointExtension>
            <ns3:hr>120</ns3:hr>
            <ns3:cad>0</ns3:cad>
          </ns3:TrackPointExtension>
        </extensions>
      </trkpt>
      <trkpt lat="31.27401924692094326019287109375" lon="121.480138041079044342041015625">
        <ele>12.3999996185302734375</ele>
        <time>2026-09-09T08:45:37.000Z</time>
        <extensions>
          <ns3:TrackPointExtension>
            <ns3:hr>117</ns3:hr>
            <ns3:cad>53</ns3:cad>
          </ns3:TrackPointExtension>
        </extensions>
      </trkpt>
      <trkpt lat="31.27403131686151027679443359375" lon="121.48016327060759067535400390625">
        <ele>12.19999980926513671875</ele>
        <time>2026-09-09T08:45:40.000Z</time>
        <extensions>
          <ns3:TrackPointExtension>
            <ns3:hr>118</ns3:hr>
            <ns3:cad>0</ns3:cad>
          </ns3:TrackPointExtension>
        </extensions>
      </trkpt>
      <trkpt lat="31.2740684486925601959228515625" lon="121.480215489864349365234375">
        <ele>11.80000019073486328125</ele>
        <time>2026-09-09T08:45:47.000Z</time>
        <extensions>
          <ns3:TrackPointExtension>
            <ns3:hr>116</ns3:hr>
            <ns3:cad>0</ns3:cad>
          </ns3:TrackPointExtension>
        </extensions>
      </trkpt>
      <trkpt lat="31.274082027375698089599609375" lon="121.48023099638521671295166015625">
        <ele>11.6000003814697265625</ele>
        <time>2026-09-09T08:45:49.000Z</time>
        <extensions>
          <ns3:TrackPointExtension>
            <ns3:hr>113</ns3:hr>
            <ns3:cad>0</ns3:cad>
          </ns3:TrackPointExtension>
        </extensions>
      </trkpt>
      <trkpt lat="31.2741013057529926300048828125" lon="121.4802812039852142333984375">
        <ele>11.3999996185302734375</ele>
        <time>2026-09-09T08:45:55.000Z</time>
        <extensions>
          <ns3:TrackPointExtension>
            <ns3:hr>110</ns3:hr>
            <ns3:cad>0</ns3:cad>
          </ns3:TrackPointExtension>
        </extensions>
      </trkpt>
      <trkpt lat="31.27411798574030399322509765625" lon="121.480296961963176727294921875">
        <ele>11.19999980926513671875</ele>
        <time>2026-09-09T08:45:57.000Z</time>
        <extensions>
          <ns3:TrackPointExtension>
            <ns3:hr>107</ns3:hr>
            <ns3:cad>52</ns3:cad>
          </ns3:TrackPointExtension>
        </extensions>
      </trkpt>
      <trkpt lat="31.27419660799205303192138671875" lon="121.4803876541554927825927734375">
        <ele>10</ele>
        <time>2026-09-09T08:46:02.000Z</time>
        <extensions>
          <ns3:TrackPointExtension>
            <ns3:hr>110</ns3:hr>
            <ns3:cad>82</ns3:cad>
          </ns3:TrackPointExtension>
        </extensions>
      </trkpt>
      <trkpt lat="31.27421622164547443389892578125" lon="121.48040768690407276153564453125">
        <ele>9.6000003814697265625</ele>
        <time>2026-09-09T08:46:03.000Z</time>
        <extensions>
          <ns3:TrackPointExtension>
            <ns3:hr>110</ns3:hr>
            <ns3:cad>82</ns3:cad>
          </ns3:TrackPointExtension>
        </extensions>
      </trkpt>
      <trkpt lat="31.27426165156066417694091796875" lon="121.4804345928132534027099609375">
        <ele>8.3999996185302734375</ele>
        <time>2026-09-09T08:46:05.000Z</time>
        <extensions>
          <ns3:TrackPointExtension>
            <ns3:hr>112</ns3:hr>
            <ns3:cad>83</ns3:cad>
          </ns3:TrackPointExtension>
        </extensions>
      </trkpt>
      <trkpt lat="31.2743450514972209930419921875" lon="121.4804761670529842376708984375">
        <ele>7</ele>
        <time>2026-09-09T08:46:09.000Z</time>
        <extensions>
          <ns3:TrackPointExtension>
            <ns3:hr>114</ns3:hr>
            <ns3:cad>82</ns3:cad>
          </ns3:TrackPointExtension>
        </extensions>
      </trkpt>
      <trkpt lat="31.2743628211319446563720703125" lon="121.48048312403261661529541015625">
        <ele>6.80000019073486328125</ele>
        <time>2026-09-09T08:46:10.000Z</time>
        <extensions>
          <ns3:TrackPointExtension>
            <ns3:hr>114</ns3:hr>
            <ns3:cad>82</ns3:cad>
          </ns3:TrackPointExtension>
        </extensions>
      </trkpt>
      <trkpt lat="31.27446390688419342041015625" lon="121.4804877340793609619140625">
        <ele>6</ele>
        <time>2026-09-09T08:46:14.000Z</time>
        <extensions>
          <ns3:TrackPointExtension>
            <ns3:hr>115</ns3:hr>
            <ns3:cad>83</ns3:cad>
          </ns3:TrackPointExtension>
        </extensions>
      </trkpt>
      <trkpt lat="31.2746327184140682220458984375" lon="121.480538360774517059326171875">
        <ele>5.400000095367431640625</ele>
        <time>2026-09-09T08:46:21.000Z</time>
        <extensions>
          <ns3:TrackPointExtension>
            <ns3:hr>115</ns3:hr>
            <ns3:cad>84</ns3:cad>
          </ns3:TrackPointExtension>
        </extensions>
      </trkpt>
      <trkpt lat="31.27470186911523342132568359375" lon="121.4805640093982219696044921875">
        <ele>6.19999980926513671875</ele>
        <time>2026-09-09T08:46:24.000Z</time>
        <extensions>
          <ns3:TrackPointExtension>
            <ns3:hr>110</ns3:hr>
            <ns3:cad>83</ns3:cad>
          </ns3:TrackPointExtension>
        </extensions>
      </trkpt>
      <trkpt lat="31.27477345056831836700439453125" lon="121.48058454506099224090576171875">
        <ele>6.80000019073486328125</ele>
        <time>2026-09-09T08:46:27.000Z</time>
        <extensions>
          <ns3:TrackPointExtension>
            <ns3:hr>107</ns3:hr>
            <ns3:cad>83</ns3:cad>
          </ns3:TrackPointExtension>
        </extensions>
      </trkpt>
      <trkpt lat="31.27481670118868350982666015625" lon="121.480598710477352142333984375">
        <ele>7.19999980926513671875</ele>
        <time>2026-09-09T08:46:29.000Z</time>
        <extensions>
          <ns3:TrackPointExtension>
            <ns3:hr>107</ns3:hr>
            <ns3:cad>82</ns3:cad>
          </ns3:TrackPointExtension>
        </extensions>
      </trkpt>
      <trkpt lat="31.27492566592991352081298828125" lon="121.48063131608068943023681640625">
        <ele>7.80000019073486328125</ele>
        <time>2026-09-09T08:46:34.000Z</time>
        <extensions>
          <ns3:TrackPointExtension>
            <ns3:hr>110</ns3:hr>
            <ns3:cad>82</ns3:cad>
          </ns3:TrackPointExtension>
        </extensions>
      </trkpt>
      <trkpt lat="31.27495198510587215423583984375" lon="121.48064321838319301605224609375">
        <ele>7.80000019073486328125</ele>
        <time>2026-09-09T08:46:35.000Z</time>
        <extensions>
          <ns3:TrackPointExtension>
            <ns3:hr>110</ns3:hr>
            <ns3:cad>82</ns3:cad>
          </ns3:TrackPointExtension>
        </extensions>
      </trkpt>
      <trkpt lat="31.27511744387447834014892578125" lon="121.48069233633577823638916015625">
        <ele>7.599999904632568359375</ele>
        <time>2026-09-09T08:46:42.000Z</time>
        <extensions>
          <ns3:TrackPointExtension>
            <ns3:hr>113</ns3:hr>
            <ns3:cad>83</ns3:cad>
          </ns3:TrackPointExtension>
        </extensions>
      </trkpt>
      <trkpt lat="31.27523512579500675201416015625" lon="121.4806790091097354888916015625">
        <ele>6.400000095367431640625</ele>
        <time>2026-09-09T08:46:47.000Z</time>
        <extensions>
          <ns3:TrackPointExtension>
            <ns3:hr>116</ns3:hr>
            <ns3:cad>83</ns3:cad>
          </ns3:TrackPointExtension>
        </extensions>
      </trkpt>
      <trkpt lat="31.2753793783485889434814453125" lon="121.480709351599216461181640625">
        <ele>4.400000095367431640625</ele>
        <time>2026-09-09T08:46:53.000Z</time>
        <extensions>
          <ns3:TrackPointExtension>
            <ns3:hr>119</ns3:hr>
            <ns3:cad>82</ns3:cad>
          </ns3:TrackPointExtension>
        </extensions>
      </trkpt>
      <trkpt lat="31.275401003658771514892578125" lon="121.48071144707500934600830078125">
        <ele>4</ele>
        <time>2026-09-09T08:46:54.000Z</time>
        <extensions>
          <ns3:TrackPointExtension>
            <ns3:hr>119</ns3:hr>
            <ns3:cad>82</ns3:cad>
          </ns3:TrackPointExtension>
        </extensions>
      </trkpt>
      <trkpt lat="31.27549882046878337860107421875" lon="121.4807702042162418365478515625">
        <ele>3.7999999523162841796875</ele>
        <time>2026-09-09T08:46:59.000Z</time>
        <extensions>
          <ns3:TrackPointExtension>
            <ns3:hr>121</ns3:hr>
            <ns3:cad>82</ns3:cad>
          </ns3:TrackPointExtension>
        </extensions>
      </trkpt>
      <trkpt lat="31.27567852847278118133544921875" lon="121.48082041181623935699462890625">
        <ele>3.599999904632568359375</ele>
        <time>2026-09-09T08:47:06.000Z</time>
        <extensions>
          <ns3:TrackPointExtension>
            <ns3:hr>121</ns3:hr>
            <ns3:cad>82</ns3:cad>
          </ns3:TrackPointExtension>
        </extensions>
      </trkpt>
      <trkpt lat="31.27567852847278118133544921875" lon="121.48082041181623935699462890625">
        <ele>3.599999904632568359375</ele>
        <time>2026-09-09T08:47:07.000Z</time>
        <extensions>
          <ns3:TrackPointExtension>
            <ns3:hr>121</ns3:hr>
            <ns3:cad>82</ns3:cad>
          </ns3:TrackPointExtension>
        </extensions>
      </trkpt>
      <trkpt lat="31.275834180414676666259765625" lon="121.480870954692363739013671875">
        <ele>5.400000095367431640625</ele>
        <time>2026-09-09T08:47:15.000Z</time>
        <extensions>
          <ns3:TrackPointExtension>
            <ns3:hr>120</ns3:hr>
            <ns3:cad>82</ns3:cad>
          </ns3:TrackPointExtension>
        </extensions>
      </trkpt>
      <trkpt lat="31.27596753649413585662841796875" lon="121.48093725554645061492919921875">
        <ele>8</ele>
        <time>2026-09-09T08:47:21.000Z</time>
        <extensions>
          <ns3:TrackPointExtension>
            <ns3:hr>120</ns3:hr>
            <ns3:cad>82</ns3:cad>
          </ns3:TrackPointExtension>
        </extensions>
      </trkpt>
      <trkpt lat="31.27604666166007518768310546875" lon="121.48101302795112133026123046875">
        <ele>8.80000019073486328125</ele>
        <time>2026-09-09T08:47:25.000Z</time>
        <extensions>
          <ns3:TrackPointExtension>
            <ns3:hr>121</ns3:hr>
            <ns3:cad>82</ns3:cad>
          </ns3:TrackPointExtension>
        </extensions>
      </trkpt>
      <trkpt lat="31.27606443129479885101318359375" lon="121.48103021085262298583984375">
        <ele>8.6000003814697265625</ele>
        <time>2026-09-09T08:47:26.000Z</time>
        <extensions>
          <ns3:TrackPointExtension>
            <ns3:hr>121</ns3:hr>
            <ns3:cad>82</ns3:cad>
          </ns3:TrackPointExtension>
        </extensions>
      </trkpt>
      <trkpt lat="31.27617783844470977783203125" lon="121.4811832644045352935791015625">
        <ele>7.400000095367431640625</ele>
        <time>2026-09-09T08:47:33.000Z</time>
        <extensions>
          <ns3:TrackPointExtension>
            <ns3:hr>123</ns3:hr>
            <ns3:cad>82</ns3:cad>
          </ns3:TrackPointExtension>
        </extensions>
      </trkpt>
      <trkpt lat="31.2762923352420330047607421875" lon="121.48129616864025592803955078125">
        <ele>6.19999980926513671875</ele>
        <time>2026-09-09T08:47:40.000Z</time>
        <extensions>
          <ns3:TrackPointExtension>
            <ns3:hr>124</ns3:hr>
            <ns3:cad>82</ns3:cad>
          </ns3:TrackPointExtension>
        </extensions>
      </trkpt>
      <trkpt lat="31.2763064168393611907958984375" lon="121.48131460882723331451416015625">
        <ele>6.19999980926513671875</ele>
        <time>2026-09-09T08:47:41.000Z</time>
        <extensions>
          <ns3:TrackPointExtension>
            <ns3:hr>124</ns3:hr>
            <ns3:cad>82</ns3:cad>
          </ns3:TrackPointExtension>
        </extensions>
      </trkpt>
      <trkpt lat="31.27633902244269847869873046875" lon="121.48133740760385990142822265625">
        <ele>6</ele>
        <time>2026-09-09T08:47:43.000Z</time>
        <extensions>
          <ns3:TrackPointExtension>
            <ns3:hr>125</ns3:hr>
            <ns3:cad>83</ns3:cad>
          </ns3:TrackPointExtension>
        </extensions>
      </trkpt>
      <trkpt lat="31.2763734720647335052490234375" lon="121.48135852999985218048095703125">
        <ele>5.80000019073486328125</ele>
        <time>2026-09-09T08:47:45.000Z</time>
        <extensions>
          <ns3:TrackPointExtension>
            <ns3:hr>125</ns3:hr>
            <ns3:cad>83</ns3:cad>
          </ns3:TrackPointExtension>
        </extensions>
      </trkpt>
      <trkpt lat="31.2764817662537097930908203125" lon="121.4814203046262264251708984375">
        <ele>5.400000095367431640625</ele>
        <time>2026-09-09T08:47:52.000Z</time>
        <extensions>
          <ns3:TrackPointExtension>
            <ns3:hr>125</ns3:hr>
            <ns3:cad>83</ns3:cad>
          </ns3:TrackPointExtension>
        </extensions>
      </trkpt>
      <trkpt lat="31.27661059610545635223388671875" lon="121.481503285467624664306640625">
        <ele>5.19999980926513671875</ele>
        <time>2026-09-09T08:47:59.000Z</time>
        <extensions>
          <ns3:TrackPointExtension>
            <ns3:hr>125</ns3:hr>
            <ns3:cad>82</ns3:cad>
          </ns3:TrackPointExtension>
        </extensions>
      </trkpt>
      <trkpt lat="31.2767379172146320343017578125" lon="121.481479145586490631103515625">
        <ele>6.19999980926513671875</ele>
        <time>2026-09-09T08:48:06.000Z</time>
        <extensions>
          <ns3:TrackPointExtension>
            <ns3:hr>125</ns3:hr>
            <ns3:cad>82</ns3:cad>
          </ns3:TrackPointExtension>
        </extensions>
      </trkpt>
      <trkpt lat="31.2768606282770633697509765625" lon="121.48140278644859790802001953125">
        <ele>7.599999904632568359375</ele>
        <time>2026-09-09T08:48:12.000Z</time>
        <extensions>
          <ns3:TrackPointExtension>
            <ns3:hr>125</ns3:hr>
            <ns3:cad>82</ns3:cad>
          </ns3:TrackPointExtension>
        </extensions>
      </trkpt>
      <trkpt lat="31.2769992649555206298828125" lon="121.4813281036913394927978515625">
        <ele>9.19999980926513671875</ele>
        <time>2026-09-09T08:48:19.000Z</time>
        <extensions>
          <ns3:TrackPointExtension>
            <ns3:hr>125</ns3:hr>
            <ns3:cad>82</ns3:cad>
          </ns3:TrackPointExtension>
        </extensions>
      </trkpt>
      <trkpt lat="31.27717117778956890106201171875" lon="121.4812548458576202392578125">
        <ele>10.6000003814697265625</ele>
        <time>2026-09-09T08:48:26.000Z</time>
        <extensions>
          <ns3:TrackPointExtension>
            <ns3:hr>123</ns3:hr>
            <ns3:cad>83</ns3:cad>
          </ns3:TrackPointExtension>
        </extensions>
      </trkpt>
      <trkpt lat="31.2772934697568416595458984375" lon="121.48115652613341808319091796875">
        <ele>11.19999980926513671875</ele>
        <time>2026-09-09T08:48:32.000Z</time>
        <extensions>
          <ns3:TrackPointExtension>
            <ns3:hr>125</ns3:hr>
            <ns3:cad>84</ns3:cad>
          </ns3:TrackPointExtension>
        </extensions>
      </trkpt>
      <trkpt lat="31.277391873300075531005859375" lon="121.4809908159077167510986328125">
        <ele>12.3999996185302734375</ele>
        <time>2026-09-09T08:48:40.000Z</time>
        <extensions>
          <ns3:TrackPointExtension>
            <ns3:hr>124</ns3:hr>
            <ns3:cad>84</ns3:cad>
          </ns3:TrackPointExtension>
        </extensions>
      </trkpt>
      <trkpt lat="31.27743772231042385101318359375" lon="121.4808235131204128265380859375">
        <ele>13.80000019073486328125</ele>
        <time>2026-09-09T08:48:47.000Z</time>
        <extensions>
          <ns3:TrackPointExtension>
            <ns3:hr>125</ns3:hr>
            <ns3:cad>83</ns3:cad>
          </ns3:TrackPointExtension>
        </extensions>
      </trkpt>
      <trkpt lat="31.2774721719324588775634765625" lon="121.48066450841724872589111328125">
        <ele>13.3999996185302734375</ele>
        <time>2026-09-09T08:48:53.000Z</time>
        <extensions>
          <ns3:TrackPointExtension>
            <ns3:hr>126</ns3:hr>
            <ns3:cad>83</ns3:cad>
          </ns3:TrackPointExtension>
        </extensions>
      </trkpt>
      <trkpt lat="31.27746798098087310791015625" lon="121.48054112680256366729736328125">
        <ele>13</ele>
        <time>2026-09-09T08:48:58.000Z</time>
        <extensions>
          <ns3:TrackPointExtension>
            <ns3:hr>125</ns3:hr>
            <ns3:cad>84</ns3:cad>
          </ns3:TrackPointExtension>
        </extensions>
      </trkpt>
      <trkpt lat="31.27746353857219219207763671875" lon="121.4805264584720134735107421875">
        <ele>13</ele>
        <time>2026-09-09T08:48:59.000Z</time>
        <extensions>
          <ns3:TrackPointExtension>
            <ns3:hr>125</ns3:hr>
            <ns3:cad>84</ns3:cad>
          </ns3:TrackPointExtension>
        </extensions>
      </trkpt>
      <trkpt lat="31.2774054519832134246826171875" lon="121.47804533131420612335205078125">
        <ele>10.80000019073486328125</ele>
        <time>2026-09-09T08:53:19.000Z</time>
        <extensions>
          <ns3:TrackPointExtension>
            <ns3:hr>88</ns3:hr>
            <ns3:cad>82</ns3:cad>
          </ns3:TrackPointExtension>
        </extensions>
      </trkpt>
      <trkpt lat="31.27736614085733890533447265625" lon="121.47794030606746673583984375">
        <ele>10.80000019073486328125</ele>
        <time>2026-09-09T08:53:22.000Z</time>
        <extensions>
          <ns3:TrackPointExtension>
            <ns3:hr>91</ns3:hr>
            <ns3:cad>84</ns3:cad>
          </ns3:TrackPointExtension>
        </extensions>
      </trkpt>
      <trkpt lat="31.27737150527536869049072265625" lon="121.4779284037649631500244140625">
        <ele>10.80000019073486328125</ele>
        <time>2026-09-09T08:53:23.000Z</time>
        <extensions>
          <ns3:TrackPointExtension>
            <ns3:hr>91</ns3:hr>
            <ns3:cad>85</ns3:cad>
          </ns3:TrackPointExtension>
        </extensions>
      </trkpt>
      <trkpt lat="31.27738357521593570709228515625" lon="121.47794223390519618988037109375">
        <ele>10.80000019073486328125</ele>
        <time>2026-09-09T08:53:24.000Z</time>
        <extensions>
          <ns3:TrackPointExtension>
            <ns3:hr>95</ns3:hr>
            <ns3:cad>85</ns3:cad>
          </ns3:TrackPointExtension>
        </extensions>
      </trkpt>
      <trkpt lat="31.277417354285717010498046875" lon="121.477966122329235076904296875">
        <ele>10.80000019073486328125</ele>
        <time>2026-09-09T08:53:25.000Z</time>
        <extensions>
          <ns3:TrackPointExtension>
            <ns3:hr>103</ns3:hr>
            <ns3:cad>85</ns3:cad>
          </ns3:TrackPointExtension>
        </extensions>
      </trkpt>
      <trkpt lat="31.2774430029094219207763671875" lon="121.4779867418110370635986328125">
        <ele>10.80000019073486328125</ele>
        <time>2026-09-09T08:53:26.000Z</time>
        <extensions>
          <ns3:TrackPointExtension>
            <ns3:hr>103</ns3:hr>
            <ns3:cad>85</ns3:cad>
          </ns3:TrackPointExtension>
        </extensions>
      </trkpt>
      <trkpt lat="31.277475692331790924072265625" lon="121.47797073237597942352294921875">
        <ele>10.6000003814697265625</ele>
        <time>2026-09-09T08:53:28.000Z</time>
        <extensions>
          <ns3:TrackPointExtension>
            <ns3:hr>101</ns3:hr>
            <ns3:cad>84</ns3:cad>
          </ns3:TrackPointExtension>
        </extensions>
      </trkpt>
      <trkpt lat="31.27749237231910228729248046875" lon="121.4778931997716426849365234375">
        <ele>10.19999980926513671875</ele>
        <time>2026-09-09T08:53:30.000Z</time>
        <extensions>
          <ns3:TrackPointExtension>
            <ns3:hr>104</ns3:hr>
            <ns3:cad>84</ns3:cad>
          </ns3:TrackPointExtension>
        </extensions>
      </trkpt>
      <trkpt lat="31.27752422355115413665771484375" lon="121.4777969755232334136962890625">
        <ele>10</ele>
        <time>2026-09-09T08:53:33.000Z</time>
        <extensions>
          <ns3:TrackPointExtension>
            <ns3:hr>107</ns3:hr>
            <ns3:cad>85</ns3:cad>
          </ns3:TrackPointExtension>
        </extensions>
      </trkpt>
      <trkpt lat="31.27754517830908298492431640625" lon="121.4776675589382648468017578125">
        <ele>10</ele>
        <time>2026-09-09T08:53:37.000Z</time>
        <extensions>
          <ns3:TrackPointExtension>
            <ns3:hr>108</ns3:hr>
            <ns3:cad>84</ns3:cad>
          </ns3:TrackPointExtension>
        </extensions>
      </trkpt>
      <trkpt lat="31.27759261988103389739990234375" lon="121.477571837604045867919921875">
        <ele>9.6000003814697265625</ele>
        <time>2026-09-09T08:53:40.000Z</time>
        <extensions>
          <ns3:TrackPointExtension>
            <ns3:hr>108</ns3:hr>
            <ns3:cad>84</ns3:cad>
          </ns3:TrackPointExtension>
        </extensions>
      </trkpt>
      <trkpt lat="31.2776341103017330169677734375" lon="121.477539651095867156982421875">
        <ele>9</ele>
        <time>2026-09-09T08:53:42.000Z</time>
        <extensions>
          <ns3:TrackPointExtension>
            <ns3:hr>108</ns3:hr>
            <ns3:cad>84</ns3:cad>
          </ns3:TrackPointExtension>
        </extensions>
      </trkpt>
      <trkpt lat="31.2777641974389553070068359375" lon="121.477538309991359710693359375">
        <ele>8</ele>
        <time>2026-09-09T08:53:47.000Z</time>
        <extensions>
          <ns3:TrackPointExtension>
            <ns3:hr>109</ns3:hr>
            <ns3:cad>84</ns3:cad>
          </ns3:TrackPointExtension>
        </extensions>
      </trkpt>
      <trkpt lat="31.27786620520055294036865234375" lon="121.47756236605346202850341796875">
        <ele>8</ele>
        <time>2026-09-09T08:53:51.000Z</time>
        <extensions>
          <ns3:TrackPointExtension>
            <ns3:hr>112</ns3:hr>
            <ns3:cad>84</ns3:cad>
          </ns3:TrackPointExtension>
        </extensions>
      </trkpt>
      <trkpt lat="31.27796343527734279632568359375" lon="121.47762623615562915802001953125">
        <ele>8.19999980926513671875</ele>
        <time>2026-09-09T08:53:55.000Z</time>
        <extensions>
          <ns3:TrackPointExtension>
            <ns3:hr>113</ns3:hr>
            <ns3:cad>84</ns3:cad>
          </ns3:TrackPointExtension>
        </extensions>
      </trkpt>
      <trkpt lat="31.27803132869303226470947265625" lon="121.477674432098865509033203125">
        <ele>8.6000003814697265625</ele>
        <time>2026-09-09T08:53:59.000Z</time>
        <extensions>
          <ns3:TrackPointExtension>
            <ns3:hr>116</ns3:hr>
            <ns3:cad>84</ns3:cad>
          </ns3:TrackPointExtension>
        </extensions>
      </trkpt>
    </trkseg>
  </trk>
</gpx>
